DELTA 2 R/B(1)          
1 20453U 90008B   26049.04372630  .00062180  00000+0  79809-3 0  9999
2 20453  35.6044 303.5081 0089803  75.1977 285.8687 15.53201827923071
COSMOS 2058             
1 20465U 90010A   26049.11519741  .00004098  00000+0  24255-3 0  9998
2 20465  82.4656  66.7116 0011017  49.7360 310.4832 15.11135696939286
SL-14 R/B               
1 20466U 90010B   26049.12728693  .00000406  00000+0  46266-4 0  9994
2 20466  82.5012 285.7668 0020054   8.8466 351.3098 14.83551548925585
SL-14 R/B               
1 20511U 90018B   26049.05873630  .00000422  00000+0  49950-4 0  9998
2 20511  82.5178 241.4415 0016960 152.2545 207.9578 14.82122515919670
HST                     
1 20580U 90037B   26048.64771443  .00006944  00000+0  23067-3 0  9993
2 20580  28.4680 176.6860 0001126 244.7281 115.3198 15.29149182770247
SL-16 R/B               
1 20625U 90046B   26049.25697369  .00000282  00000+0  17000-3 0  9994
2 20625  71.0017 338.7246 0015347 326.6878  33.3277 14.15012657845640
COSMOS 2084             
1 20663U 90055A   26049.26162454  .00002728  00000+0  20188-3 0  9997
2 20663  62.7900  41.8319 0020089 185.7306 174.3568 15.05518206933392
SL-6 R/B(2)             
1 20666U 90055D   26049.15141473  .00002310  00000+0  18238-3 0  9996
2 20666  62.7844 320.2894 0021848 341.9943  18.0380 15.03495190935258
SL-8 R/B                
1 20775U 90078B   26049.08388830  .00014317  00000+0  42005-3 0  9993
2 20775  82.9004 268.9348 0366059  79.7144 284.5126 14.88391082806384
SL-8 R/B                
1 21088U 91006B   26049.29456637  .00000022  00000+0  69575-5 0  9998
2 21088  82.9448 184.4641 0023762  90.1228 289.3208 13.77492365761403
OKEAN-3                 
1 21397U 91039A   26049.26130338  .00004359  00000+0  30740-3 0  9998
2 21397  82.5205 355.6590 0015693  41.3337 318.9074 15.04652544862110
COSMOS 2151             
1 21422U 91042A   26049.20530101  .00001685  00000+0  13302-3 0  9991
2 21422  82.4949 102.4739 0013885 122.1786 238.0787 15.00027904860273
